{"updated_at":"2026-06-13T16:20:54.886668Z","count":200,"data":[{"NORAD_CAT_ID":"69343","OBJECT_NAME":"STARLINK-37776","OBJECT_ID":"2026-122Q","EPOCH":"2026-06-13T06:00:02.000160","TLE_LINE1":"1 69343U 26122Q   26164.25002315 -.01262447  00000-0 -57882-2 0  9995","TLE_LINE2":"2 69343  97.2827 193.5107 0001462  81.3580  96.0999 15.86138360  2720"},{"NORAD_CAT_ID":"69344","OBJECT_NAME":"STARLINK-37786","OBJECT_ID":"2026-122R","EPOCH":"2026-06-13T06:00:02.000160","TLE_LINE1":"1 69344U 26122R   26164.25002315 -.01256524  00000-0 -56240-2 0  9992","TLE_LINE2":"2 69344  97.2834 193.5161 0001368  85.5409 103.5669 15.86619007  2720"},{"NORAD_CAT_ID":"69345","OBJECT_NAME":"STARLINK-37785","OBJECT_ID":"2026-122S","EPOCH":"2026-06-13T06:00:02.000160","TLE_LINE1":"1 69345U 26122S   26164.25002315 -.01254116  00000-0 -56150-2 0  9998","TLE_LINE2":"2 69345  97.2831 193.5161 0001364  86.2545 103.6116 15.86607828  2729"},{"NORAD_CAT_ID":"69346","OBJECT_NAME":"STARLINK-37773","OBJECT_ID":"2026-122T","EPOCH":"2026-06-13T06:00:02.000160","TLE_LINE1":"1 69346U 26122T   26164.25002315 -.02505902  00000-0 -12023-1 0  9992","TLE_LINE2":"2 69346  97.2834 193.5199 0001634  91.4688 106.3406 15.85802314  2773"},{"NORAD_CAT_ID":"69347","OBJECT_NAME":"STARLINK-37744","OBJECT_ID":"2026-122U","EPOCH":"2026-06-13T06:00:02.000160","TLE_LINE1":"1 69347U 26122U   26164.25002315 -.02540040  00000-0 -11674-1 0  9996","TLE_LINE2":"2 69347  97.2835 193.5222 0001867  92.7805 110.5243 15.86722868  2722"},{"NORAD_CAT_ID":"69348","OBJECT_NAME":"STARLINK-37775","OBJECT_ID":"2026-122V","EPOCH":"2026-06-13T06:00:02.000160","TLE_LINE1":"1 69348U 26122V   26164.25002315 -.00738567  00000-0 -36088-2 0  9995","TLE_LINE2":"2 69348  97.2840 193.5192 0001064  84.3465 111.0095 15.84019818  2726"},{"NORAD_CAT_ID":"69349","OBJECT_NAME":"STARLINK-37777","OBJECT_ID":"2026-122W","EPOCH":"2026-06-13T06:00:02.000160","TLE_LINE1":"1 69349U 26122W   26164.25002315 -.02383562  00000-0 -12561-1 0  9998","TLE_LINE2":"2 69349  97.2843 193.5227 0001807  90.6422 111.0979 15.83685064  2729"},{"NORAD_CAT_ID":"69350","OBJECT_NAME":"STARLINK-37779","OBJECT_ID":"2026-122X","EPOCH":"2026-06-13T06:00:02.000160","TLE_LINE1":"1 69350U 26122X   26164.25002315 -.02174273  00000-0 -11224-1 0  9992","TLE_LINE2":"2 69350  97.2846 193.5238 0001672  78.1499 128.7564 15.84366806  2727"},{"NORAD_CAT_ID":"69351","OBJECT_NAME":"STARLINK-37549","OBJECT_ID":"2026-122Y","EPOCH":"2026-06-13T06:00:02.000160","TLE_LINE1":"1 69351U 26122Y   26164.25002315 -.01831162  00000-0 -98235-2 0  9997","TLE_LINE2":"2 69351  97.2847 193.5198 0001772  92.1908 101.5868 15.82994759  2724"},{"NORAD_CAT_ID":"69352","OBJECT_NAME":"STARLINK-37778","OBJECT_ID":"2026-122Z","EPOCH":"2026-06-13T06:00:02.000160","TLE_LINE1":"1 69352U 26122Z   26164.25002315 -.02440097  00000-0 -12716-1 0  9991","TLE_LINE2":"2 69352  97.2845 193.5281 0001751  88.8173 126.5953 15.83999775  2725"},{"NORAD_CAT_ID":"69325","OBJECT_NAME":"QIANFAN-163","OBJECT_ID":"2026-121A","EPOCH":"2026-06-07T22:57:09.243936","TLE_LINE1":"1 69325U 26121A   26158.95635699  .00000032  00000-0  25988-4 0  9992","TLE_LINE2":"2 69325  89.0167 301.4498 0019200 214.2671 145.7248 13.60351284   905"},{"NORAD_CAT_ID":"69326","OBJECT_NAME":"QIANFAN-164","OBJECT_ID":"2026-121B","EPOCH":"2026-06-11T09:53:52.001952","TLE_LINE1":"1 69326U 26121B   26162.41240743  .00000112  00000-0  13228-3 0  9993","TLE_LINE2":"2 69326  89.0157 301.0998 0019383 205.3125 154.7084 13.60355109  1373"},{"NORAD_CAT_ID":"69327","OBJECT_NAME":"CZ-12B R/B","OBJECT_ID":"2026-121C","EPOCH":"2026-06-13T07:27:24.143040","TLE_LINE1":"1 69327U 26121C   26164.31069610  .00000174  00000-0  85283-4 0  9996","TLE_LINE2":"2 69327  89.0314 300.8420 0195545  19.4645 341.3868 14.04085311  1684"},{"NORAD_CAT_ID":"69299","OBJECT_NAME":"STARLINK-37455","OBJECT_ID":"2026-119D","EPOCH":"2026-06-12T14:07:06.079584","TLE_LINE1":"1 69299U 26119D   26163.58826481 -.00255334  00000-0 -14432-2 0  9994","TLE_LINE2":"2 69299  97.2829 189.1634 0004055  36.6104 323.5440 15.79682093  3318"},{"NORAD_CAT_ID":"69300","OBJECT_NAME":"STARLINK-37456","OBJECT_ID":"2026-119E","EPOCH":"2026-06-13T05:12:30.499488","TLE_LINE1":"1 69300U 26119E   26164.21701967  .00289957  00000-0  14575-2 0  9993","TLE_LINE2":"2 69300  97.2822 189.8379 0000951  69.9301 290.2069 15.80924273  3415"},{"NORAD_CAT_ID":"69301","OBJECT_NAME":"STARLINK-37630","OBJECT_ID":"2026-119F","EPOCH":"2026-06-13T06:00:02.000160","TLE_LINE1":"1 69301U 26119F   26164.25002315 -.02573444  00000-0 -29556-1 0  9994","TLE_LINE2":"2 69301  97.2835 189.8346 0001663  67.9493  33.8958 15.65571556  3418"},{"NORAD_CAT_ID":"69302","OBJECT_NAME":"STARLINK-37804","OBJECT_ID":"2026-119G","EPOCH":"2026-06-13T06:00:02.000160","TLE_LINE1":"1 69302U 26119G   26164.25002315 -.02609280  00000-0 -29639-1 0  9995","TLE_LINE2":"2 69302  97.2837 189.8371 0001703  64.4406  42.3974 15.65898134  3417"},{"NORAD_CAT_ID":"69303","OBJECT_NAME":"STARLINK-37730","OBJECT_ID":"2026-119H","EPOCH":"2026-06-13T05:09:17.748000","TLE_LINE1":"1 69303U 26119H   26164.21478875  .00215124  00000-0  10948-2 0  9990","TLE_LINE2":"2 69303  97.2821 189.8414 0001594 108.4492 251.6950 15.80847495  3411"},{"NORAD_CAT_ID":"69304","OBJECT_NAME":"STARLINK-37731","OBJECT_ID":"2026-119J","EPOCH":"2026-06-13T06:00:02.000160","TLE_LINE1":"1 69304U 26119J   26164.25002315 -.02596741  00000-0 -30861-1 0  9993","TLE_LINE2":"2 69304  97.2840 189.8394 0001630  76.6697  35.6872 15.64754318  3410"},{"NORAD_CAT_ID":"69305","OBJECT_NAME":"STARLINK-37734","OBJECT_ID":"2026-119K","EPOCH":"2026-06-13T05:07:46.842240","TLE_LINE1":"1 69305U 26119K   26164.21373660  .00146203  00000-0  75153-3 0  9999","TLE_LINE2":"2 69305  97.2823 189.8431 0001606  92.3684 267.7768 15.80808855  3414"},{"NORAD_CAT_ID":"69306","OBJECT_NAME":"STARLINK-37701","OBJECT_ID":"2026-119L","EPOCH":"2026-06-13T05:07:23.966112","TLE_LINE1":"1 69306U 26119L   26164.21347183  .00127629  00000-0  65705-3 0  9994","TLE_LINE2":"2 69306  97.2824 189.8425 0001566  90.6375 269.5073 15.80825596  3412"},{"NORAD_CAT_ID":"69307","OBJECT_NAME":"STARLINK-37732","OBJECT_ID":"2026-119M","EPOCH":"2026-06-13T05:06:47.831040","TLE_LINE1":"1 69307U 26119M   26164.21305360  .00156465  00000-0  80230-3 0  9996","TLE_LINE2":"2 69307  97.2824 189.8442 0001287  89.2255 270.9161 15.80835879  3412"},{"NORAD_CAT_ID":"69308","OBJECT_NAME":"STARLINK-37689","OBJECT_ID":"2026-119N","EPOCH":"2026-06-13T06:00:02.000160","TLE_LINE1":"1 69308U 26119N   26164.25002315 -.02554910  00000-0 -29987-1 0  9996","TLE_LINE2":"2 69308  97.2836 189.8450 0002010  74.6834  52.5544 15.64999100  3410"},{"NORAD_CAT_ID":"69309","OBJECT_NAME":"STARLINK-37619","OBJECT_ID":"2026-119P","EPOCH":"2026-06-13T05:04:19.833888","TLE_LINE1":"1 69309U 26119P   26164.21134067  .00215463  00000-0  10955-2 0  9992","TLE_LINE2":"2 69309  97.2820 189.8460 0000551  77.2600 282.8730 15.80866815  3412"},{"NORAD_CAT_ID":"69310","OBJECT_NAME":"STARLINK-37794","OBJECT_ID":"2026-119Q","EPOCH":"2026-06-13T03:29:57.931296","TLE_LINE1":"1 69310U 26119Q   26164.14580939  .00179148  00000-0  91497-3 0  9999","TLE_LINE2":"2 69310  97.2825 189.7822 0001263  56.2977 303.8412 15.80863129  3400"},{"NORAD_CAT_ID":"69311","OBJECT_NAME":"STARLINK-37795","OBJECT_ID":"2026-119R","EPOCH":"2026-06-13T06:00:02.000160","TLE_LINE1":"1 69311U 26119R   26164.25002315 -.02347245  00000-0 -27199-1 0  9994","TLE_LINE2":"2 69311  97.2839 189.8528 0002055  78.9743  65.3337 15.65012698  3419"},{"NORAD_CAT_ID":"69312","OBJECT_NAME":"STARLINK-37790","OBJECT_ID":"2026-119S","EPOCH":"2026-06-13T04:59:14.409888","TLE_LINE1":"1 69312U 26119S   26164.20780567  .00259779  00000-0  13134-2 0  9997","TLE_LINE2":"2 69312  97.2826 189.8509 0001065  91.1034 269.0356 15.80876424  3411"},{"NORAD_CAT_ID":"69313","OBJECT_NAME":"STARLINK-37676","OBJECT_ID":"2026-119T","EPOCH":"2026-06-13T04:56:19.420512","TLE_LINE1":"1 69313U 26119T   26164.20578033  .00249555  00000-0  12629-2 0  9990","TLE_LINE2":"2 69313  97.2828 189.8536 0000914  75.7779 284.3591 15.80881625  3410"},{"NORAD_CAT_ID":"69314","OBJECT_NAME":"STARLINK-37617","OBJECT_ID":"2026-119U","EPOCH":"2026-06-13T04:55:04.094400","TLE_LINE1":"1 69314U 26119U   26164.20490850  .00241549  00000-0  12236-2 0  9990","TLE_LINE2":"2 69314  97.2827 189.8544 0001117  77.6591 282.4802 15.80880875  3418"},{"NORAD_CAT_ID":"69315","OBJECT_NAME":"STARLINK-37627","OBJECT_ID":"2026-119V","EPOCH":"2026-06-13T04:54:37.010592","TLE_LINE1":"1 69315U 26119V   26164.20459503  .00173867  00000-0  88887-3 0  9994","TLE_LINE2":"2 69315  97.2831 189.8551 0001316  87.8867 272.2551 15.80855408  3414"},{"NORAD_CAT_ID":"69316","OBJECT_NAME":"STARLINK-37738","OBJECT_ID":"2026-119W","EPOCH":"2026-06-13T04:57:50.906880","TLE_LINE1":"1 69316U 26119W   26164.20683920  .00103273  00000-0  53333-3 0  9999","TLE_LINE2":"2 69316  97.2824 189.8518 0001267  89.0493 271.0921 15.80824487  3415"},{"NORAD_CAT_ID":"69317","OBJECT_NAME":"STARLINK-37799","OBJECT_ID":"2026-119X","EPOCH":"2026-06-13T04:55:38.116128","TLE_LINE1":"1 69317U 26119X   26164.20530227  .00178246  00000-0  91077-3 0  9990","TLE_LINE2":"2 69317  97.2826 189.8540 0000910  97.8026 262.3346 15.80855785  2166"},{"NORAD_CAT_ID":"69318","OBJECT_NAME":"STARLINK-37802","OBJECT_ID":"2026-119Y","EPOCH":"2026-06-13T04:52:43.023936","TLE_LINE1":"1 69318U 26119Y   26164.20327574  .00360185  00000-0  17942-2 0  9993","TLE_LINE2":"2 69318  97.2826 189.8578 0001605  14.8262 345.3053 15.80942236  3415"},{"NORAD_CAT_ID":"69319","OBJECT_NAME":"STARLINK-37803","OBJECT_ID":"2026-119Z","EPOCH":"2026-06-13T06:00:02.000160","TLE_LINE1":"1 69319U 26119Z   26164.25002315 -.00815430  00000-0 -55891-2 0  9997","TLE_LINE2":"2 69319  97.2831 189.9037 0001213  76.8047 183.3731 15.76837951  3366"}]}